FOX-1D (AO-92)          
1 43137U 18004AC  23278.22154547  .00107150  00000+0  14612-2 0  9992
2 43137  97.3166 359.2968 0004030 104.0058 256.1646 15.57135623319369
DIWATA-2B               
1 43678U 18084H   23278.52503694  .00003152  00000+0  30204-3 0  9997
2 43678  98.0396  64.8546 0009904 150.8586 209.3187 14.93870224268739
ES'HAIL 2               
1 43700U 18090A   23278.51746792  .00000136  00000+0  00000+0 0  9993
2 43700   0.0133 237.9716 0001354 340.5619   7.5459  1.00274443 17798
FOX-1CLIFF (AO-95)      
1 43770U 18099N   23278.12701990  .00010722  00000+0  83693-3 0  9992
2 43770  97.5758 336.7966 0015259 140.8052 219.4280 15.01221634264098
ITASAT 1                
1 43786U 18099AE  23278.42868753  .00009636  00000+0  76401-3 0  9994
2 43786  97.5574 338.0198 0019618 121.6760 238.6380 15.00589085264178
JY1SAT (JO-97)          
1 43803U 18099AX  23278.13941355  .00011738  00000+0  89116-3 0  9995
2 43803  97.5566 337.9706 0012529  93.2555 267.0104 15.02283522264193
UWE-4                   
1 43880U 18111E   23278.54516608  .00013900  00000+0  10110-2 0  9999
2 43880  97.6228 182.0557 0018856 153.1204 207.1003 15.03785186260949
NEXUS (FO-99)           
1 43937U 19003F   23278.57687223  .00286706  00000+0  18147-2 0  9992
2 43937  97.0709 305.7374 0007427 199.9302 160.1676 15.75726524263273
JAISAT-1                
1 44419U 19038F   23278.52792190  .00057119  00000+0  15737-2 0  9997
2 44419  97.6826 264.4574 0009210 266.8208  93.1982 15.36898917235445
DUCHIFAT-3              
1 44854U 19089C   23278.37717447  .00017263  00000+0  10906-2 0  9990
2 44854  36.9596 151.7731 0005941 153.4454 206.6595 15.08383215209465
TIANYAN 01              
1 44881U 19093C   23278.57087954  .00002425  00000+0  30547-3 0  9998
2 44881  97.8535 355.1201 0016019  79.4505 280.8513 14.82827220205154
RS-44 & BREEZE-KM R/B   
1 44909U 19096E   23278.45823205  .00000030  00000+0  85133-4 0  9998
2 44909  82.5161 274.6680 0216319 289.2803  68.5014 12.79723149176269
BY70-2                  
1 45857U 20042B   23278.54559496  .00049778  00000+0  44467-2 0  9997
2 45857  97.9180 359.1642 0007348   1.9511 358.1737 14.95692591176003
SALSAT                  
1 46495U 20068K   23278.58083447  .00009730  00000+0  61820-3 0  9993
2 46495  97.7809 227.8927 0017243 102.9036 257.4119 15.08937594165715
RADFXSAT-2 (AO-109)     
1 47311U 21002C   23278.52611372  .00065618  00000+0  13014-2 0  9996
2 47311  60.6794 352.2882 0017791   3.2670 356.8541 15.46416816151307
UVSQ-SAT                
1 47438U 21006AB  23278.11539119  .00031695  00000+0  11443-2 0  9995
2 47438  97.3708 333.8464 0009979  60.4174 299.8059 15.28384116149419
LEDSAT                  
1 49069U 21073D   23278.14616601  .00020344  00000+0  10415-2 0  9993
2 49069  97.4714 347.2526 0024226  99.4626 260.9347 15.16381355117551
XW-3 (CAS-9)            
1 50466U 21131B   23278.51826854  .00001299  00000+0  43449-3 0  9997
2 50466  98.5462 359.7012 0004694 157.4814 202.6580 14.39091159 93228
TEVEL-3                 
1 50988U 22002E   23278.43388658  .00048191  00000+0  16308-2 0  9995
2 50988  97.4208 344.9547 0006785 194.4065 165.6983 15.30426326 95591
TEVEL-8                 
1 50989U 22002F   23278.45778242  .00047335  00000+0  16058-2 0  9991
2 50989  97.4225 345.0494 0006776 193.9006 166.2049 15.30350354 95590
TEVEL-5                 
1 50998U 22002Q   23278.44223933  .00050266  00000+0  16440-2 0  9994
2 50998  97.4202 345.4943 0007833 189.9672 170.1415 15.31510839 95630
TEVEL-6                 
1 50999U 22002R   23278.44091095  .00050907  00000+0  16651-2 0  9993
2 50999  97.4200 345.4850 0007875 189.7620 170.3470 15.31504328 95632
TEVEL-1                 
1 51013U 22002AF  23278.44747435  .00047452  00000+0  16088-2 0  9992
2 51013  97.4200 344.8910 0006695 194.0525 166.0531 15.30369721 95592
TEVEL-7                 
1 51062U 22002CG  23278.45704080  .00048404  00000+0  16402-2 0  9994
2 51062  97.4221 345.0193 0006765 193.4431 166.6630 15.30381635 95596
TEVEL-4                 
1 51063U 22002CH  23278.53318521  .00047648  00000+0  16185-2 0  9992
2 51063  97.4217 345.0652 0006791 193.3481 166.7581 15.30306750 95608
TEVEL-2                 
1 51069U 22002CP  23278.43523699  .00047471  00000+0  16062-2 0  9999
2 51069  97.4205 344.9243 0006740 194.4365 165.6685 15.30435375 95599
GREENCUBE               
1 53106U 22080B   23276.06829093 -.00000003  00000+0  00000+0 0  9996
2 53106  70.1395 282.2281 0008443 166.2744 193.8146  6.42557263 28682
CYCLOPS (RS29S)         
1 53373U 22096D   23278.57629168  .00086883  00000+0  16159-2 0  9992
2 53373  97.3989 186.7278 0004294  97.1875 262.9864 15.48565367 64718
MONITOR-1 (RS32S)       
1 53374U 22096E   23278.56966715  .00083062  00000+0  16395-2 0  9992
2 53374  97.3955 186.3487 0004894  98.9350 261.2454 15.46857350 64691
KUZBASS-300 (RS34S)     
1 53375U 22096F   23278.52430472  .00060019  00000+0  13589-2 0  9994
2 53375  97.4001 185.5893 0004246  97.9675 262.2054 15.42909734 64638
UTMN (RS23S)            
1 53376U 22096G   23278.56400266  .00063882  00000+0  14015-2 0  9993
2 53376  97.3995 185.8274 0004191  97.9251 262.2472 15.43832334 64653
MIET-AIS (RS28S)        
1 53377U 22096H   23278.52098359  .00055327  00000+0  13009-2 0  9993
2 53377  97.4013 185.4628 0004036  95.6976 264.4731 15.41797667 64628
KAI-1 (RS26S)           
1 53378U 22096J   23278.55978687  .00045599  00000+0  11592-2 0  9993
2 53378  97.4033 184.9936 0003834  91.7402 268.4282 15.39474690 64599
ISOI (RS19S)            
1 53381U 22096M   23278.53323762  .00058311  00000+0  13271-2 0  9995
2 53381  97.4009 185.8715 0004862  61.8986 298.2752 15.42759234 64652
CUBESX-HSE-2 (RS21S)    
1 53383U 22096P   23278.52140927  .00063126  00000+0  13808-2 0  9992
2 53383  97.4000 186.0498 0005194  61.9862 298.1910 15.43919165 64667
SIREN (RS30S)           
1 53384U 22096Q   23278.56450284  .00051649  00000+0  12349-2 0  9993
2 53384  97.4018 185.5708 0005072  58.1222 302.0517 15.41305091 64638
GEOSCAN-EDELVEIS (RS20S)
1 53385U 22096R   23278.55171724  .00096878  00000+0  16692-2 0  9990
2 53385  97.3978 187.4821 0004973  56.0050 304.1674 15.50704605 64793
VIZARD (RS33S)          
1 53386U 22096S   23278.57778005  .00172953  00000+0  21077-2 0  9990
2 53386  97.3969 189.1361 0005813  71.6676 288.5212 15.59901015 64890
CAS-5A (FO-118)         
1 54684U 22167C   23278.54778857  .00026305  00000+0  13251-2 0  9997
2 54684  97.5768  55.6838 0012240 316.3470  43.6794 15.17090837 45394
STRATOSAT-TK 1 (RS52S)  
1 57167U 23091B   23278.54627618  .00017713  00000+0  12501-2 0  9991
2 57167  97.6534 328.2976 0016139 271.3878  88.5499 15.04904148 15022
UMKA 1 (RS40S)          
1 57172U 23091G   23278.55988093  .00009174  00000+0  66233-3 0  9999
2 57172  97.6523 328.2791 0016808 270.9918  88.9382 15.04207252 15021
CUBESX-HSE 3 (RS42S)    
1 57178U 23091N   23278.56434594  .00011730  00000+0  84298-3 0  9990
2 57178  97.6552 328.3237 0017847 265.4296  94.4892 15.04299541 15027
MONITOR-4 (RS57S)       
1 57182U 23091S   23278.56968158  .00010455  00000+0  75442-3 0  9997
2 57182  97.6535 328.3030 0018049 266.4244  93.4918 15.04171836 15027
MONITOR-2 (RS39S)       
1 57184U 23091U   23278.51767803  .00006469  00000+0  46205-3 0  9993
2 57184  97.6553 328.3748 0013405 259.4299 100.5417 15.04774377 15021
SVYATOBOR 1 (RS60S)     
1 57187U 23091X   23278.56567559  .00010364  00000+0  72879-3 0  9992
2 57187  97.6551 328.4649 0013591 257.6516 102.3189 15.05200601 15033
VIZARD-METEO (RS38S)    
1 57189U 23091Z   23278.54051841  .00011789  00000+0  81753-3 0  9997
2 57189  97.6558 328.4884 0012104 255.0986 104.8900 15.05704229 15038
NANOZOND 1 (RS49S)      
1 57190U 23091AA  23278.51895232  .00015040  00000+0  10263-2 0  9997
2 57190  97.6525 328.4793 0010832 261.7260  98.2739 15.06256582 15039
POLYTECH-UNIVERSE 3 (R*)
1 57191U 23091AB  23278.56539865  .00007777  00000+0  55624-3 0  9999
2 57191  97.6514 328.2712 0019635 278.0439  81.8559 15.04572002 15029
UTMN 2 (RS27S)          
1 57203U 23091AP  23278.41415074  .00011214  00000+0  78089-3 0  9993
2 57203  97.6557 328.3475 0012605 256.2199 103.7625 15.05556526 15019
ARCCUBE 1 (RS25S)       
1 57205U 23091AR  23278.51853030  .00016189  00000+0  11011-2 0  9991
2 57205  97.6507 328.4584 0011194 263.8136  96.1816 15.06357807 15036
KUZGTU 1 (RS47S)        
1 57217U 23091AV  23278.56208671  .00011765  00000+0  84521-3 0  9996
2 57217  97.6530 328.2948 0017695 266.8169  93.1033 15.04313718 15026
